NORAD_CAT_ID,OBJECT_NAME,OBJECT_TYPE,EPOCH,MEAN_MOTION,ECCENTRICITY,INCLINATION,RA_OF_ASC_NODE,ARG_OF_PERICENTER,MEAN_ANOMALY,BSTAR,MEAN_MOTION_DOT,MEAN_MOTION_DDOT,TLE_LINE0,TLE_LINE1,TLE_LINE2,SEMIMAJOR_AXIS,PERIOD,APOGEE,PERIGEE,DECAYED
53425.0,STARLINK-4531,PAYLOAD,2022-10-09 22:00:00,15.29799389,0.000161,53.2174,311.7019,43.4936,67.9303,-0.039662,-0.01064144,0.0,0 STARLINK-4531,1 53425U 22097AP  22282.91667824 -.01064144  00000-0 -39662-1 0  9997,2 53425  53.2174 311.7019 0001610  43.4936  67.9303 15.29799389  1306,6854.5480000000025,94.13,477.517,475.31,0.0
53425.0,STARLINK-4531,PAYLOAD,2022-10-10 14:00:01,15.28280641,0.0001727,53.2173,308.6216,44.8952,138.2466,-0.041546,-0.01063606,0.0,0 STARLINK-4531,1 53425U 22097AP  22283.58334491 -.01063606  00000-0 -41546-1 0  9998,2 53425  53.2173 308.6216 0001727  44.8952 138.2466 15.28280641  1308,6859.089,94.224,482.138,479.769,0.0
53425.0,STARLINK-4531,PAYLOAD,2022-10-10 22:00:01,15.275206099999998,0.0001656,53.2173,307.0813,46.5735,171.12400000000005,-0.042503,-0.01063029,0.0,0 STARLINK-4531,1 53425U 22097AP  22283.91668981 -.01063029  00000-0 -42503-1 0  9992,2 53425  53.2173 307.0813 0001656  46.5735 171.1240 15.27520610  1301,6861.364000000001,94.27,484.365,482.093,0.0
53425.0,STARLINK-4531,PAYLOAD,2022-10-11 14:00:01,15.26004036,0.0001743,53.2171,304.0118,38.0326,245.8425,-0.0446639999999999,-0.01066296,0.0,0 STARLINK-4531,1 53425U 22097AP  22284.58334491 -.01066296  00000-0 -44664-1 0  9991,2 53425  53.2171 304.0118 0001743  38.0326 245.8425 15.26004036  1305,6865.909000000002,94.364,488.971,486.577,0.0
53425.0,STARLINK-4531,PAYLOAD,2022-10-11 22:00:00,15.25240966,0.0001513,53.2173,302.4770000000001,44.3142,271.3162,-0.045465,-0.0106103,0.0,0 STARLINK-4531,1 53425U 22097AP  22284.91667824 -.01061030  00000-0 -45465-1 0  9998,2 53425  53.2173 302.4770 0001513  44.3142 271.3162 15.25240966 10231,6868.199000000001,94.411,491.103,489.025,0.0
53425.0,STARLINK-4531,PAYLOAD,2022-10-12 14:00:01,15.23725123,0.0001789,53.2172,299.418,32.4372,343.9582,-0.047795,-0.0106533999999999,0.0,0 STARLINK-4531,1 53425U 22097AP  22285.58334491 -.01065340  00000-0 -47795-1 0  9999,2 53425  53.2172 299.4180 0001789  32.4372 343.9582 15.23725123  1309,6872.753000000002,94.505,495.848,493.389,0.0
53425.0,STARLINK-4531,PAYLOAD,2022-10-12 22:00:00,15.22962602,0.0001737,53.2173,297.8885,34.6992,10.7134,-0.048706,-0.01061512,0.0,0 STARLINK-4531,1 53425U 22097AP  22285.91667824 -.01061512  00000-0 -48706-1 0  9995,2 53425  53.2173 297.8885 0001737  34.6992  10.7134 15.22962602  1305,6875.047,94.553,498.106,495.718,0.0
53425.0,STARLINK-4531,PAYLOAD,2022-10-13 14:00:01,15.214449300000002,0.0001610999999999,53.2172,294.8402,45.6946,55.0077,-0.051,-0.01062422,0.0,0 STARLINK-4531,1 53425U 22097AP  22286.58334491 -.01062422  00000-0 -51000-1 0  9992,2 53425  53.2172 294.8402 0001611  45.6946  55.0077 15.21444930  1304,6879.618,94.647,502.592,500.375,0.0
53425.0,STARLINK-4531,PAYLOAD,2022-10-13 20:00:01,15.20874173,0.0001404,53.2174,293.6968,48.6614,341.8988,-0.0518179999999999,-0.01061474,0.0,0 STARLINK-4531,1 53425U 22097AP  22286.83335648 -.01061474  00000-0 -51818-1 0  9998,2 53425  53.2174 293.6968 0001404  48.6614 341.8988 15.20874173 10532,6881.339,94.682,504.171,502.23800000000006,0.0
53425.0,STARLINK-4531,PAYLOAD,2022-10-13 22:00:00,15.20685687,0.0001899,53.2173,293.3162,36.5638,90.4164,-0.052242,-0.01064104,0.0,0 STARLINK-4531,1 53425U 22097AP  22286.91667824 -.01064104  00000-0 -52242-1 0  9996,2 53425  53.2173 293.3162 0001899  36.5638  90.4164 15.20685687  1302,6881.908,94.694,505.08,502.466,0.0
53425.0,STARLINK-4531,PAYLOAD,2022-10-14 14:00:01,15.19166426,0.0001919,53.2172,290.2785,39.1972,137.5973,-0.054534,-0.01062565,0.0,0 STARLINK-4531,1 53425U 22097AP  22287.58334491 -.01062565  00000-0 -54534-1 0  9996,2 53425  53.2172 290.2785 0001919  39.1972 137.5973 15.19166426  1305,6886.496,94.789,509.682,507.039,0.0
53425.0,STARLINK-4531,PAYLOAD,2022-10-14 16:00:00,15.18978167,0.0001729,53.2174,289.8985,41.5678,231.1968,-0.0550159999999999,-0.01079274,0.0,0 STARLINK-4531,1 53425U 22097AP  22287.66667824 -.01079274  00000-0 -55016-1 0  9995,2 53425  53.2174 289.8985 0001729  41.5678 231.1968 15.18978167 10657,6887.065,94.801,510.12,507.739,0.0
53425.0,STARLINK-4531,PAYLOAD,2022-10-14 22:00:00,15.18407532,0.0001810999999999,53.2172,288.7598,43.1999,157.1343,-0.055864,-0.01077996,0.0,0 STARLINK-4531,1 53425U 22097AP  22287.91667824 -.01077996  00000-0 -55864-1 0  9993,2 53425  53.2172 288.7598 0001811  43.1999 157.1343 15.18407532  1308,6888.79,94.836,511.902,509.407,0.0
53425.0,STARLINK-4531,PAYLOAD,2022-10-15 14:00:01,15.1688901,0.0001495,53.2172,285.7327,59.6418,185.0307,-0.058376,-0.01078044,0.0,0 STARLINK-4531,1 53425U 22097AP  22288.58334491 -.01078044  00000-0 -58376-1 0  9994,2 53425  53.2172 285.7327 0001495  59.6418 185.0307 15.16889010  1304,6893.387,94.931,516.2819999999998,514.221,0.0
53425.0,STARLINK-4531,PAYLOAD,2022-10-15 22:00:01,15.16127591,0.0001525,53.2173,284.2193,55.0562,210.4819,-0.059509,-0.01075412,0.0,0 STARLINK-4531,1 53425U 22097AP  22288.91668981 -.01075412  00000-0 -59509-1 0  9990,2 53425  53.2173 284.2193 0001525  55.0562 210.4819 15.16127591  1304,6895.694,94.979,518.611,516.508,0.0
53425.0,STARLINK-4531,PAYLOAD,2022-10-16 14:00:01,15.14610854,0.0001403,53.2173,281.2028,57.6212,246.7153,-0.062349,-0.01078735,0.0,0 STARLINK-4531,1 53425U 22097AP  22289.58334491 -.01078735  00000-0 -62349-1 0  9997,2 53425  53.2173 281.2028 0001403  57.6212 246.7153 15.14610854  1303,6900.297,95.074,523.13,521.194,0.0
53425.0,STARLINK-4531,PAYLOAD,2022-10-16 22:00:00,15.13847592,0.0001361,53.2174,279.695,61.2249,261.1765,-0.063319,-0.01072542,0.0,0 STARLINK-4531,1 53425U 22097AP  22289.91667824 -.01072542  00000-0 -63319-1 0  9991,2 53425  53.2174 279.6950 0001361  61.2249 261.1765 15.13847592  1303,6902.616,95.122,525.4209999999998,523.5419999999998,0.0
53425.0,STARLINK-4531,PAYLOAD,2022-10-17 14:00:01,15.12331881,0.0001654,53.2173,276.6888,39.8734,315.9136,-0.066442,-0.01078014,0.0,0 STARLINK-4531,1 53425U 22097AP  22290.58334491 -.01078014  00000-0 -66442-1 0  9997,2 53425  53.2173 276.6888 0001654  39.8734 315.9136 15.12331881 11101,6907.228,95.217,530.235,527.95,0.0
53425.0,STARLINK-4531,PAYLOAD,2022-10-17 22:00:00,15.11568703,0.0001619,53.2175,275.1865,42.6749,328.4387,-0.067441,-0.01071585,0.0,0 STARLINK-4531,1 53425U 22097AP  22290.91667824 -.01071585  00000-0 -67441-1 0  9999,2 53425  53.2175 275.1865 0001619  42.6749 328.4387 15.11568703  1303,6909.552,95.265,532.536,530.299,0.0
53425.0,STARLINK-4531,PAYLOAD,2022-10-18 14:00:01,15.10045373,0.0001774999999999,53.2173,272.1902,40.4852,358.5403,-0.069688,-0.01062096,0.0,0 STARLINK-4531,1 53425U 22097AP  22291.58334491 -.01062096  00000-0 -69688-1 0  9996,2 53425  53.2173 272.1902 0001775  40.4852 358.5403 15.10045373 11254,6914.198,95.361,537.2909999999998,534.836,0.0
53425.0,STARLINK-4531,PAYLOAD,2022-10-18 22:00:00,15.09191004,0.0001675999999999,53.2175,270.6921,57.8189,353.8029,-0.029861,-0.00450973,0.0,0 STARLINK-4531,1 53425U 22097AP  22291.91667824 -.00450973  00000-0 -29861-1 0  9995,2 53425  53.2175 270.6921 0001676  57.8189 353.8029 15.09191004 11304,6916.808000000001,95.415,539.832,537.513,0.0
53425.0,STARLINK-4531,PAYLOAD,2022-10-19 08:00:01,15.08836064,0.000188,53.2191,268.818,46.7373,109.5718,0.0017596,0.00027824,0.0,0 STARLINK-4531,1 53425U 22097AP  22292.33334491  .00027824  00000-0  17596-2 0  9999,2 53425  53.2191 268.8180 0001880  46.7373 109.5718 15.08836064 11365,6917.892,95.438,541.058,538.457,0.0
53425.0,STARLINK-4531,PAYLOAD,2022-10-19 14:00:01,15.08871604,0.0001774999999999,53.2182,267.6967,48.4314,26.5718,-0.0021891,-0.00034989,0.0,0 STARLINK-4531,1 53425U 22097AP  22292.58334491 -.00034989  00000-0 -21891-2 0  9991,2 53425  53.2182 267.6967 0001775  48.4314  26.5718 15.08871604  1302,6917.784000000002,95.436,540.877,538.4209999999998,0.0
53425.0,STARLINK-4531,PAYLOAD,2022-10-19 22:00:00,15.08835987,0.0001718,53.2175,266.2029,48.7855,37.8386,0.00012683,1.731e-05,0.0,0 STARLINK-4531,1 53425U 22097AP  22292.91667824  .00001731  00000-0  12683-3 0  9994,2 53425  53.2175 266.2029 0001718  48.7855  37.8386 15.08835987 11455,6917.893,95.438,540.946,538.569,0.0
53425.0,STARLINK-4531,PAYLOAD,2022-10-20 08:00:01,15.08788836,0.0001595,53.2188,264.3255,39.8369,151.3757,-0.0012322,-0.00019817,0.0,0 STARLINK-4531,1 53425U 22097AP  22293.33334491 -.00019817  00000-0 -12322-2 0  9997,2 53425  53.2188 264.3255 0001595  39.8369 151.3757 15.08788836 11514,6918.0369999999975,95.441,541.005,538.798,0.0
53425.0,STARLINK-4531,PAYLOAD,2022-10-20 14:00:01,15.0877149,0.0001514,53.2184,263.2035,41.5079,68.3492,0.0019091999999999,0.0003017,0.0,0 STARLINK-4531,1 53425U 22097AP  22293.58334491  .00030170  00000-0  19092-2 0  9998,2 53425  53.2184 263.2035 0001514  41.5079  68.3492 15.08771490  1300,6918.09,95.442,541.002,538.9069999999998,0.0
53425.0,STARLINK-4531,PAYLOAD,2022-10-20 22:00:00,15.08763172,0.0001551999999999,53.2181,261.7089,48.8151,72.569,0.0112719999999999,0.00183429,0.0,0 STARLINK-4531,1 53425U 22097AP  22293.91667824  .00183429  00000-0  11272-1 0  9991,2 53425  53.2181 261.7089 0001552  48.8151  72.5690 15.08763172 11601,6918.115,95.442,541.054,538.9069999999998,0.0
53425.0,STARLINK-4531,PAYLOAD,2022-10-21 06:00:00,15.08809819,0.0001685,53.2182,260.2117,44.0018,88.9352,0.00082022,0.00012779,0.0,0 STARLINK-4531,1 53425U 22097AP  22294.25001157  .00012779  00000-0  82022-3 0  9992,2 53425  53.2182 260.2117 0001685  44.0018  88.9352 15.08809819 11655,6917.973000000001,95.439,541.003,538.672,0.0
53425.0,STARLINK-4531,PAYLOAD,2022-10-21 14:00:01,15.08845491,0.0001579,53.2181,258.7146,45.8123,98.7011,-0.0011886,-0.00019158,0.0,0 STARLINK-4531,1 53425U 22097AP  22294.58334491 -.00019158  00000-0 -11886-2 0  9997,2 53425  53.2181 258.7146 0001579  45.8123  98.7011 15.08845491  1304,6917.864000000001,95.437,540.821,538.636,0.0
